BEIDOU-3S IGSO-1S       
1 40549U 15019A   26203.86188105 -.00000173  00000+0  00000+0 0  9998
2 40549  49.1249 295.0310 0038696 195.6676 212.2841  1.00291059 41434
NAVSTAR 74 (USA 262)    
1 40730U 15033A   26204.12011411 -.00000010  00000+0  00000+0 0  9991
2 40730  53.9555 265.6030 0115510  30.2978 330.4370  2.00554565 80710
BEIDOU-3S M2S           
1 40748U 15037A   26204.83597271 -.00000090  00000+0  00000+0 0  9993
2 40748  54.8359 300.7831 0009656 256.8157 103.1127  1.86232145 74807
BEIDOU-3S M1S           
1 40749U 15037B   26204.50200157 -.00000093  00000+0  00000+0 0  9995
2 40749  54.8328 300.7823 0002543  62.0343 298.0267  1.86255010 74802
GSAT0206 (GALILEO 10)   
1 40890U 15045B   26204.23883850  .00000075  00000+0  00000+0 0  9997
2 40890  54.9377 220.6082 0002056 330.6429  29.3940  1.70473660 67653
BEIDOU-3S IGSO-2S       
1 40938U 15053A   26204.13149049 -.00000085  00000+0  00000+0 0  9995
2 40938  49.1651 258.3502 0065896 193.8088 348.7982  1.00251983 39718
NAVSTAR 75 (USA 265)    
1 41019U 15062A   26204.17456617 -.00000075  00000+0  00000+0 0  9991
2 41019  56.9840  29.4262 0113193 230.8504 128.1758  2.00567136 78551
GSAT-15                 
1 41028U 15065A   26204.84471176 -.00000253  00000+0  00000+0 0  9993
2 41028   0.0964 262.8370 0003598 181.0493 255.2828  1.00271101 39169
GSAT0209 (GALILEO 12)   
1 41174U 15079A   26200.88772413 -.00000039  00000+0  00000+0 0  9990
2 41174  55.8457 100.3644 0004618 358.4074   1.6290  1.70473671 65332
GSAT0208 (GALILEO 11)   
1 41175U 15079B   26202.86782092 -.00000047  00000+0  00000+0 0  9994
2 41175  55.8455 100.3069 0004206   2.1198 357.9162  1.70473606 65787
IRNSS-1E                
1 41241U 16003A   26202.03020233 -.00000317  00000+0  00000+0 0  9997
2 41241  33.3051  59.2585 0019282 176.3074 185.9195  1.00275296 38420
NAVSTAR 76 (USA 266)    
1 41328U 16007A   26204.76406772 -.00000065  00000+0  00000+0 0  9995
2 41328  55.5466  88.0089 0096680 247.5432 111.4806  2.00575540 76574
COSMOS 2514 [GLONASS-M] 
1 41330U 16008A   26204.41821104 -.00000088  00000+0  00000+0 0  9996
2 41330  64.9975 311.7630 0012557 202.1470 157.8201  2.13102761 81398
BEIDOU-2 IGSO-6         
1 41434U 16021A   26177.11016981 -.00000145  00000+0  00000+0 0  9995
2 41434  60.2385  37.9495 0057558 231.0163 137.2672  1.00258926 37578
IRNSS-1G                
1 41469U 16027A   26204.63795369 -.00000335  00000+0  00000+0 0  9992
2 41469   5.2835  96.6306 0005779  13.7876 190.1836  1.00265396 37548
GSAT0211 (GALILEO 14)   
1 41549U 16030A   26204.75113949  .00000077  00000+0  00000+0 0  9998
2 41549  55.0884 220.6884 0003484 318.9701  41.0537  1.70473768 63296
GSAT0210 (GALILEO 13)   
1 41550U 16030B   26204.42178794  .00000076  00000+0  00000+0 0  9992
2 41550  55.0870 220.6957 0004720 247.6947 112.3044  1.70473980 63288
BEIDOU-2 G7             
1 41586U 16037A   26204.84809177 -.00000350  00000+0  00000+0 0  9996
2 41586   1.8087  69.5627 0006194   2.7717 285.0973  1.00269796  7257
EUTELSAT 117 WEST B     
1 41589U 16038B   26204.58911843 -.00000007  00000+0  00000+0 0  9994
2 41589   0.0071 180.9991 0000164   3.2430 212.1722  1.00273737 37026
GSAT0207 (GALILEO 15)   
1 41859U 16069A   26204.11386333 -.00000048  00000+0  00000+0 0  9992
2 41859  55.5193 100.0917 0004370 341.3874  18.6303  1.70473642 60011
GSAT0212 (GALILEO 16)   
1 41860U 16069B   26203.96725933 -.00000048  00000+0  00000+0 0  9999
2 41860  55.5169 100.0907 0004376  16.3980 343.6497  1.70473873 60266
GSAT0213 (GALILEO 17)   
1 41861U 16069C   26203.16122456 -.00000048  00000+0  00000+0 0  9993
2 41861  55.5184 100.1209 0003814 320.5981  39.4080  1.70474392 60116
GSAT0214 (GALILEO 18)   
1 41862U 16069D   26202.13435722 -.00000045  00000+0  00000+0 0  9990
2 41862  55.5164 100.1420 0003141 335.1519  24.8684  1.70473784 60226
SES-15                  
1 42709U 17026A   26204.72930115  .00000065  00000+0  00000+0 0  9999
2 42709   0.0313 314.6037 0000615 132.1158 348.1297  1.00266677  7790
QZS-2 (MICHIBIKI-2)     
1 42738U 17028A   26204.41483471 -.00000112  00000+0  00000+0 0  9991
2 42738  39.3751 242.6194 0756665 269.7024  80.6651  1.00274629  7988
QZS-3 (MICHIBIKI-3)     
1 42917U 17048A   26204.85129845 -.00000343  00000+0  00000+0 0  9998
2 42917   0.0589 200.8435 0002894 286.8507 247.3495  1.00268654 32627
COSMOS 2522 [GLONASS-M] 
1 42939U 17055A   26204.25583075  .00000090  00000+0  00000+0 0  9991
2 42939  64.0809 190.6566 0010863 240.6109 119.2865  2.13101933 68749
QZS-4 (MICHIBIKI-4)     
1 42965U 17062A   26204.71274772 -.00000350  00000+0  00000+0 0  9990
2 42965  40.0864 343.0203 0746930 268.7110  85.8328  1.00289002 32178
BEIDOU-3 M1             
1 43001U 17069A   26204.10909657 -.00000073  00000+0  00000+0 0  9991
2 43001  56.7241  61.9009 0008826 327.7974  32.2132  1.86231393 59275
BEIDOU-3 M2             
1 43002U 17069B   26203.51098727 -.00000077  00000+0  00000+0 0  9997
2 43002  56.7230  61.9567 0007814   0.0665 359.9968  1.86231039 59258
GSAT0215 (GALILEO 19)   
1 43055U 17079A   26202.62380459  .00000067  00000+0  00000+0 0  9991
2 43055  55.0665 220.5584 0003765 269.3113  90.6885  1.70474444 53579
